{
"type": "FeatureCollection",
"name": "station",
"features": [
{ "type": "Feature", "properties": { "name": "大通", "id": "0", "pinyin": "datong", "type": "river" }, "geometry": { "type": "Point", "coordinates": [ 117.633, 30.767 ] } },
{ "type": "Feature", "properties": { "name": "杨林", "id": "1", "pinyin": "yanglin", "type": "river" }, "geometry": { "type": "Point", "coordinates": [ 121.267, 31.583 ] } },
{ "type": "Feature", "properties": { "name": "芜湖", "id": "2", "pinyin": "wuhu", "type": "river" }, "geometry": { "type": "Point", "coordinates": [ 118.35, 31.35 ] } },
{ "type": "Feature", "properties": { "name": "六滧", "id": "3", "pinyin": "liulang", "type": "river" }, "geometry": { "type": "Point", "coordinates": [ 121.7, 31.5 ] } },
{ "type": "Feature", "properties": { "name": "马鞍山", "id": "4", "pinyin": "maanshan", "type": "river" }, "geometry": { "type": "Point", "coordinates": [ 118.45, 31.717 ] } },
{ "type": "Feature", "properties": { "name": "高桥", "id": "5", "pinyin": "gaoqiao", "type": "river" }, "geometry": { "type": "Point", "coordinates": [ 121.55, 31.383 ] } },
{ "type": "Feature", "properties": { "name": "南京", "id": "6", "pinyin": "nanjing", "type": "river" }, "geometry": { "type": "Point", "coordinates": [ 118.717, 32.083 ] } },
{ "type": "Feature", "properties": { "name": "吴淞", "id": "7", "pinyin": "wusong", "type": "river" }, "geometry": { "type": "Point", "coordinates": [ 121.233, 31.267 ] } },
{ "type": "Feature", "properties": { "name": "镇江", "id": "8", "pinyin": "zhenjiang", "type": "river" }, "geometry": { "type": "Point", "coordinates": [ 119.433, 32.217 ] } },
{ "type": "Feature", "properties": { "name": "凤凰颈站下", "id": "9", "pinyin": "fenghuangjingzhanxia", "type": "river" }, "geometry": { "type": "Point", "coordinates": [ 117.783, 31.133 ] } },
{ "type": "Feature", "properties": { "name": "江阴", "id": "10", "pinyin": "jiangyin", "type": "river" }, "geometry": { "type": "Point", "coordinates": [ 120.3, 31.95 ] } },
{ "type": "Feature", "properties": { "name": "裕溪闸闸下", "id": "11", "pinyin": "yuxizhaxia", "type": "river" }, "geometry": { "type": "Point", "coordinates": [ 118.317, 31.433 ] } },
{ "type": "Feature", "properties": { "name": "天生港", "id": "12", "pinyin": "tianshenggang", "type": "river" }, "geometry": { "type": "Point", "coordinates": [ 120.75, 32.033 ] } },
{ "type": "Feature", "properties": { "name": "新桥闸闸下", "id": "13", "pinyin": "xinqiaozhaxia", "type": "river" }, "geometry": { "type": "Point", "coordinates": [ 118.367, 31.533 ] } },
{ "type": "Feature", "properties": { "name": "徐六泾", "id": "14", "pinyin": "xuliujing", "type": "river" }, "geometry": { "type": "Point", "coordinates": [ 120.95, 31.75 ] } }
]
}
